NORAD_CAT_ID,OBJECT_NAME,OBJECT_TYPE,EPOCH,MEAN_MOTION,ECCENTRICITY,INCLINATION,RA_OF_ASC_NODE,ARG_OF_PERICENTER,MEAN_ANOMALY,BSTAR,MEAN_MOTION_DOT,MEAN_MOTION_DDOT,TLE_LINE0,TLE_LINE1,TLE_LINE2,SEMIMAJOR_AXIS,PERIOD,APOGEE,PERIGEE,DECAYED
53143.0,STARLINK-4102,PAYLOAD,2023-11-20 10:51:33,15.08848281,0.0001541,53.2186,346.0941,86.3007,273.8161,0.00011893,1.606e-05,0.0,0 STARLINK-4102,1 53143U 22083M   23324.45247336  .00001606  00000-0  11893-3 0  9997,2 53143  53.2186 346.0941 0001541  86.3007 273.8161 15.08848281 74379,6917.855,95.437,540.786,538.654,0.0
53143.0,STARLINK-4102,PAYLOAD,2023-11-21 01:10:02,15.08839705,0.0001607,53.2187,343.4176,86.6632,273.4544,5.9267e-05,6.55e-06,0.0,0 STARLINK-4102,1 53143U 22083M   23325.04864014  .00000655  00000-0  59267-4 0  9992,2 53143  53.2187 343.4176 0001607  86.6632 273.4544 15.08839705 75093,6917.881,95.438,540.858,538.635,0.0
53143.0,STARLINK-4102,PAYLOAD,2023-11-21 10:42:20,15.08846078,0.0001652,53.2187,341.6329,88.7344,271.3837,0.00010014,1.306e-05,0.0,0 STARLINK-4102,1 53143U 22083M   23325.44607510  .00001306  00000-0  10014-3 0  9992,2 53143  53.2187 341.6329 0001652  88.7344 271.3837 15.08846078 74526,6917.862,95.437,540.87,538.584,0.0
53143.0,STARLINK-4102,PAYLOAD,2023-11-22 01:00:50,15.08829867,0.0001503,53.2182,338.9575,84.12,275.9963,-9.4999e-05,-1.799e-05,0.0,0 STARLINK-4102,1 53143U 22083M   23326.04225400 -.00001799  00000-0 -94999-4 0  9996,2 53143  53.2182 338.9575 0001503  84.1200 275.9963 15.08829867 75246,6917.911,95.438,540.816,538.737,0.0
53143.0,STARLINK-4102,PAYLOAD,2023-11-22 07:22:23,15.08835192,0.0001698,53.2185,337.7682,87.232,272.8866,-4.8244e-05,-1.056e-05,0.0,0 STARLINK-4102,1 53143U 22083M   23326.30721079 -.00001056  00000-0 -48244-4 0  9996,2 53143  53.2185 337.7682 0001698  87.2320 272.8866 15.08835192 75287,6917.895,95.438,540.935,538.585,0.0
53143.0,STARLINK-4102,PAYLOAD,2023-11-23 04:02:22,15.08855346,0.0001677,53.2189,333.9011,93.1887,266.9297,0.00018013,2.581e-05,0.0,0 STARLINK-4102,1 53143U 22083M   23327.16831291  .00002581  00000-0  18013-3 0  9991,2 53143  53.2189 333.9011 0001677  93.1887 266.9297 15.08855346 75416,6917.833,95.437,540.859,538.538,0.0
53143.0,STARLINK-4102,PAYLOAD,2023-11-23 10:23:55,15.08872658,0.0001779,53.2174,332.7115,88.6998,271.4198,0.0009446,0.00014791,0.0,0 STARLINK-4102,1 53143U 22083M   23327.43327661  .00014791  00000-0  94460-3 0  9998,2 53143  53.2174 332.7115 0001779  88.6998 271.4198 15.08872658 74827,6917.781,95.435,540.876,538.415,0.0
53143.0,STARLINK-4102,PAYLOAD,2023-11-24 03:53:10,15.08837147,0.0001814,53.2186,329.442,92.2172,267.9028,-0.00015048,-2.682e-05,0.0,0 STARLINK-4102,1 53143U 22083M   23328.16192409 -.00002682  00000-0 -15048-3 0  9992,2 53143  53.2186 329.4420 0001814  92.2172 267.9028 15.08837147 75565,6917.889,95.438,541.009,538.499,0.0
53143.0,STARLINK-4102,PAYLOAD,2023-11-24 10:14:42,15.08838295,0.0001707,53.2174,328.2513,87.2978,272.8209,0.00033685,5.077e-05,0.0,0 STARLINK-4102,1 53143U 22083M   23328.42688616  .00005077  00000-0  33685-3 0  9997,2 53143  53.2174 328.2513 0001707  87.2978 272.8209 15.08838295 74976,6917.886,95.438,540.931,538.57,0.0
53143.0,STARLINK-4102,PAYLOAD,2023-11-25 06:54:43,15.0886097,0.0001824,53.2173,324.3853,90.4179,269.7022,0.0011332,0.00017803,0.0,0 STARLINK-4102,1 53143U 22083M   23329.28800444  .00017803  00000-0  11332-2 0  9991,2 53143  53.2173 324.3853 0001824  90.4179 269.7022 15.08860970 75107,6917.816,95.436,540.943,538.419,0.0
53143.0,STARLINK-4102,PAYLOAD,2023-11-26 03:34:43,15.0888315,0.0001972,53.2176,320.5185,100.5527,259.5688,0.0013496,0.00021282,0.0,0 STARLINK-4102,1 53143U 22083M   23330.14911306  .00021282  00000-0  13496-2 0  9997,2 53143  53.2176 320.5185 0001972 100.5527 259.5688 15.08883150 75863,6917.748,95.435,540.978,538.249,0.0
53143.0,STARLINK-4102,PAYLOAD,2023-11-26 09:56:15,15.08878031,0.0002073,53.2176,319.3287,105.8916,254.2305,0.00093379,0.0001462,0.0,0 STARLINK-4102,1 53143U 22083M   23330.41406828  .00014620  00000-0  93379-3 0  9992,2 53143  53.2176 319.3287 0002073 105.8916 254.2305 15.08878031 75900,6917.764,95.435,541.063,538.195,0.0
53143.0,STARLINK-4102,PAYLOAD,2023-11-27 03:25:31,15.08805791,0.0002062,53.2176,316.06,106.7466,253.3753,-0.00040572,-6.733e-05,0.0,0 STARLINK-4102,1 53143U 22083M   23331.14273041 -.00006733  00000-0 -40572-3 0  9997,2 53143  53.2176 316.0600 0002062 106.7466 253.3753 15.08805791 76014,6917.985,95.44,541.276,538.423,0.0
53143.0,STARLINK-4102,PAYLOAD,2023-11-27 06:36:18,15.08796526,0.0001925,53.2175,315.4676,88.1126,272.0087,-0.00043214,-7.151e-05,0.0,0 STARLINK-4102,1 53143U 22083M   23331.27521694 -.00007151  00000-0 -43214-3 0  9992,2 53143  53.2175 315.4676 0001925  88.1126 272.0087 15.08796526 76037,6918.013,95.44,541.21,538.547,0.0
53143.0,STARLINK-4102,PAYLOAD,2023-11-28 06:27:05,15.08892382,0.0002102,53.218,311.0024,72.5427,287.5795,0.0034958,0.0005587,0.0,0 STARLINK-4102,1 53143U 22083M   23332.26881504  .00055870  00000-0  34958-2 0  9994,2 53143  53.2180 311.0024 0002102  72.5427 287.5795 15.08892382 76181,6917.72,95.434,541.039,538.131,0.0
53143.0,STARLINK-4102,PAYLOAD,2023-11-28 22:20:55,15.08874635,0.0001949,53.2165,308.0354,84.1383,275.9831,7.6398e-05,9.29e-06,0.0,0 STARLINK-4102,1 53143U 22083M   23332.93120075  .00000929  00000-0  76398-4 0  9998,2 53143  53.2165 308.0354 0001949  84.1383 275.9831 15.08874635 75658,6917.775,95.435,540.988,538.291,0.0
53143.0,STARLINK-4102,PAYLOAD,2023-11-29 07:53:14,15.0886426,0.000186,53.2179,306.2436,97.789,262.3313,-0.00011088,-2.054e-05,0.0,0 STARLINK-4102,1 53143U 22083M   23333.32863763 -.00002054  00000-0 -11088-3 0  9997,2 53143  53.2179 306.2436 0001860  97.7890 262.3313 15.08864260 76344,6917.806,95.436,540.958,538.385,0.0
53143.0,STARLINK-4102,PAYLOAD,2023-11-30 02:57:52,15.08830238,0.0002869,53.2187,302.6683,123.9579,236.1686,8.591e-05,1.079e-05,0.0,0 STARLINK-4102,1 53143U 22083M   23334.12352512  .00001079  00000-0  85910-4 0  9991,2 53143  53.2187 302.6683 0002869 123.9579 236.1686 15.08830238 76466,6917.91,95.438,541.76,537.79,0.0
53143.0,STARLINK-4102,PAYLOAD,2023-12-01 07:34:50,15.08840935,0.0002168,53.2187,297.3209,102.4326,257.6909,0.00054415,8.383e-05,0.0,0 STARLINK-4102,1 53143U 22083M   23335.31585755  .00008383  00000-0  54415-3 0  9990,2 53143  53.2187 297.3209 0002168 102.4326 257.6909 15.08840935 76645,6917.878,95.437,541.242,538.243,0.0
53143.0,STARLINK-4102,PAYLOAD,2023-12-02 07:25:35,15.08885079,0.0002033,53.2188,292.8607,104.6017,255.52,0.0013023,0.00020525,0.0,0 STARLINK-4102,1 53143U 22083M   23336.30944325  .00020525  00000-0  13023-2 0  9993,2 53143  53.2188 292.8607 0002033 104.6017 255.5200 15.08885079 76795,6917.743,95.435,541.014,538.201,0.0
53143.0,STARLINK-4102,PAYLOAD,2023-12-03 02:30:14,15.0882503,0.0001904,53.2182,289.2945,100.0731,260.0476,-0.0003433,-5.745e-05,0.0,0 STARLINK-4102,1 53143U 22083M   23337.10433858 -.00005745  00000-0 -34330-3 0  9990,2 53143  53.2182 289.2945 0001904 100.0731 260.0476 15.08825030 76914,6917.926,95.439,541.108,538.474,0.0
53143.0,STARLINK-4102,PAYLOAD,2023-12-04 03:56:26,15.08835243,0.000278,53.2187,284.546,46.91,313.2124,0.00068557,0.00010638,0.0,0 STARLINK-4102,1 53143U 22083M   23338.16419054  .00010638  00000-0  68557-3 0  9992,2 53143  53.2187 284.5460 0002780  46.9100 313.2124 15.08835243 77076,6917.895,95.438,541.683,537.837,0.0
53143.0,STARLINK-4102,PAYLOAD,2023-12-04 07:07:11,15.08849426,0.0001883,53.2173,283.9438,72.5347,287.5851,0.00079859,0.00012448,0.0,0 STARLINK-4102,1 53143U 22083M   23338.29666377  .00012448  00000-0  79859-3 0  9996,2 53143  53.2173 283.9438 0001883  72.5347 287.5851 15.08849426 77090,6917.852,95.437,541.019,538.414,0.0
53143.0,STARLINK-4102,PAYLOAD,2023-12-05 02:11:49,15.08851528,0.0002618,53.2179,280.3717,54.699,305.4247,0.00044094,6.739e-05,0.0,0 STARLINK-4102,1 53143U 22083M   23339.09154315  .00006739  00000-0  44094-3 0  9998,2 53143  53.2179 280.3717 0002618  54.6990 305.4247 15.08851528 77218,6917.845,95.437,541.521,537.899,0.0
53143.0,STARLINK-4102,PAYLOAD,2023-12-05 05:22:35,15.08854876,0.0002357,53.2186,279.7784,68.0905,292.0338,0.0004417,6.751e-05,0.0,0 STARLINK-4102,1 53143U 22083M   23339.22401978  .00006751  00000-0  44170-3 0  9992,2 53143  53.2186 279.7784 0002357  68.0905 292.0338 15.08854876 76600,6917.835,95.437,541.33,538.069,0.0
53143.0,STARLINK-4102,PAYLOAD,2023-12-06 03:37:59,15.08849319,0.0002612,53.2188,275.6161,62.0141,298.1115,0.00010431,1.372e-05,0.0,0 STARLINK-4102,1 53143U 22083M   23340.15137841  .00001372  00000-0  10431-3 0  9998,2 53143  53.2188 275.6161 0002612  62.0141 298.1115 15.08849319 77377,6917.852,95.437,541.524,537.91,0.0
53143.0,STARLINK-4102,PAYLOAD,2023-12-06 05:13:22,15.08852706,0.0002394,53.2183,275.3184,66.6211,293.5033,0.00016108,2.277e-05,0.0,0 STARLINK-4102,1 53143U 22083M   23340.21761579  .00002277  00000-0  16108-3 0  9998,2 53143  53.2183 275.3184 0002394  66.6211 293.5033 15.08852706 76752,6917.842,95.437,541.363,538.05,0.0
53143.0,STARLINK-4102,PAYLOAD,2023-12-07 01:53:23,15.08837822,0.0002089,53.2186,271.4492,103.28,256.8425,-2.2714e-05,-6.5e-06,0.0,0 STARLINK-4102,1 53143U 22083M   23341.07873924 -.00000650  00000-0 -22714-4 0  9997,2 53143  53.2186 271.4492 0002089 103.2800 256.8425 15.08837822 77511,6917.887,95.438,541.197,538.307,0.0
53143.0,STARLINK-4102,PAYLOAD,2023-12-08 01:44:10,15.08844492,0.0001906,53.2173,266.9994,80.5782,279.5426,0.00019668,2.844e-05,0.0,0 STARLINK-4102,1 53143U 22083M   23342.07234270  .00002844  00000-0  19668-3 0  9991,2 53143  53.2173 266.9994 0001906  80.5782 279.5426 15.08844492 77037,6917.867,95.437,541.05,538.413,0.0
53143.0,STARLINK-4102,PAYLOAD,2023-12-08 19:13:24,15.08844918,0.0001848,53.2171,263.7301,77.7763,282.3436,0.00020921,3.043e-05,0.0,0 STARLINK-4102,1 53143U 22083M   23342.80098298  .00003043  00000-0  20921-3 0  9996,2 53143  53.2171 263.7301 0001848  77.7763 282.3436 15.08844918 77771,6917.865,95.437,541.009,538.452,0.0
